471P/,e,4.7937,283.3071,94.9362,5.708809,0.0722580,0.62820662,16.3906,08/03.0/2024,2000,g 12.0,4.0
# From MPEC 2024-P23
472P/NEAT-LINEAR,e,10.8353,205.9933,218.9483,7.829589,0.0449879,0.56708451,0.8315,08/03.0/2024,2000,g 10.5,4.0
# From MPEC 2024-MB8
473P/NEAT,e,56.9078,22.1847,42.9196,7.968808,0.0438141,0.82358272,6.9558,08/03.0/2024,2000,g 13.5,4.0
# From MPEC 2024-B74
474P/Hogan,e,1.0970,26.7474,11.2697,3.130472,0.1779465,0.18829445,68.3568,08/03.0/2024,2000,g 15.5,4.0
# From MPEC 2024-O39
475P/Spacewatch-LINEAR,e,14.5249,147.3739,40.3913,7.310794,0.0498606,0.44226632,3.1123,08/03.0/2024,2000,g 11.0,4.0
# From MPEC 2024-C04
476P/PANSTARRS,e,19.0073,57.0586,46.7552,4.783570,0.0942054,0.34696942,352.9583,08/03.0/2024,2000,g 12.5,4.0
# From MPEC 2024-GJ3
477P/PANSTARRS,e,8.9147,59.1582,305.9740,3.004489,0.1892553,0.41745911,41.6947,08/03.0/2024,2000,g 14.5,4.0
# From MPEC 2024-L77
478P/ATLAS,e,12.5249,127.2710,13.1890,3.646133,0.1415648,0.34351693,13.1657,08/03.0/2024,2000,g 13.5,4.0
# From MPEC 2024-P23
479P/Elenin,e,15.3981,295.8317,263.5260,5.624199,0.0738947,0.77886535,6.6325,08/03.0/2024,2000,g 15.0,4.0
# From MPEC 2024-GJ3
480P/PANSTARRS,e,13.7175,229.9771,214.2956,4.608435,0.0996263,0.24638904,46.6089,08/03.0/2024,2000,g 12.0,4.0
# From MPEC 2024-L77
481P/Lemmon-PANSTARRS,e,6.0827,93.5534,356.7105,4.679003,0.0973810,0.34344499,38.0799,08/03.0/2024,2000,g 13.5,4.0
# From MPEC 2024-JU4
482P/PANSTARRS,e,24.4844,126.0937,339.6745,3.755524,0.1354248,0.49232442,57.9564,08/03.0/2024,2000,g 13.5,4.0
# From MPEC 2024-L77
483P-A/PANSTARRS,e,14.2804,199.7419,48.2294,3.187341,0.1732053,0.22530146,154.4511,08/03.0/2024,2000,g 13.5,4.0
# From MPEC 2024-L77
483P-B/PANSTARRS,e,14.2805,199.7397,48.2808,3.187292,0.1732093,0.22532677,154.4493,08/03.0/2024,2000,g 17.0,4.0
# From MPEC 2024-DD5
484P/Spacewatch,e,14.4755,265.3972,240.7659,3.758151,0.1352828,0.43251267,181.9610,08/03.0/2024,2000,g 16.0,4.0
# From MPEC 2024-JU4
485P/Sheppard-Tholen,e,10.0162,261.6468,196.0236,6.847181,0.0550093,0.41709211,18.9353,08/03.0/2024,2000,g 13.0,4.0
# From MPEC 2024-KE5
486P/Leonard,e,2.2095,219.0280,93.9485,3.629028,0.1425669,0.36378321,325.2355,08/03.0/2024,2000,g 14.5,4.0
# From MPC107687
1I/`Oumuamua,h,09/09.4886/2017,122.6778,24.5997,241.6845,1.199252,0.255240,2000,23.0,2.0
# From MPEC 2023-L37
2I/Borisov,h,12/08.5548/2019,44.0527,308.1480,209.1251,3.356633,2.006548,2000,11.0,4.0
